QIANFAN-49              
1 62250U 24232P   26008.57750250  .00000045  00000+0  51546-4 0  9998
2 62250  89.0004  38.5263 0016025 114.9547 245.3271 13.50983165 71463
QIANFAN-50              
1 62251U 24232Q   26008.60222115  .00000042  00000+0  46217-4 0  9993
2 62251  89.0009  38.5334 0017663 116.3434 243.9534 13.50980012 71495
QIANFAN-51              
1 62252U 24232R   26008.58574537  .00000055  00000+0  66704-4 0  9996
2 62252  89.0003  38.5273 0015109 119.2135 241.0530 13.50982648 71486
QIANFAN-52              
1 62253U 24232S   26008.61459169  .00000039  00000+0  41077-4 0  9992
2 62253  88.9999  38.3969 0017210 112.6090 247.6884 13.50980686 71575
QIANFAN-53              
1 62254U 24232T   26008.59395453  .00000054  00000+0  64999-4 0  9990
2 62254  89.0007  38.5055 0016075 113.4703 246.8140 13.50983249 71534
QIANFAN-54              
1 62255U 24232U   26008.56101955  .00000051  00000+0  60275-4 0  9990
2 62255  88.9998  38.1849 0003464 127.4885 232.6582 13.50983622103032
QIANFAN-55              
1 62785U 25016A   26008.95731220  .00000175  00000+0  25246-3 0  9991
2 62785  88.9776 100.4031 0015584 267.4788  92.4579 13.50985246 50867
QIANFAN-56              
1 62786U 25016B   26008.97378097  .00000164  00000+0  23616-3 0  9990
2 62786  88.9749 100.2306 0014206 269.8490  90.1034 13.50987770 50918
